{
  "links" : {
    "next" : "https://api.nasa.gov/neo/rest/v1/feed?start_date=1995-01-16&end_date=1995-01-16&detailed=true&api_key=t0TVs3DtDT2H8Oy2Zy8m2eVrNsAVKAexjcZXUckd",
    "prev" : "https://api.nasa.gov/neo/rest/v1/feed?start_date=1995-01-14&end_date=1995-01-14&detailed=true&api_key=t0TVs3DtDT2H8Oy2Zy8m2eVrNsAVKAexjcZXUckd",
    "self" : "https://api.nasa.gov/neo/rest/v1/feed?start_date=1995-01-15&end_date=1995-01-15&detailed=true&api_key=t0TVs3DtDT2H8Oy2Zy8m2eVrNsAVKAexjcZXUckd"
  },
  "element_count" : 4,
  "near_earth_objects" : {
    "1995-01-15" : [ {
      "links" : {
        "self" : "https://api.nasa.gov/neo/rest/v1/neo/3092506?api_key=t0TVs3DtDT2H8Oy2Zy8m2eVrNsAVKAexjcZXUckd"
      },
      "neo_reference_id" : "3092506",
      "name" : "(2001 WJ4)",
      "nasa_jpl_url" : "http://ssd.jpl.nasa.gov/sbdb.cgi?sstr=3092506",
      "absolute_magnitude_h" : 27.4,
      "estimated_diameter" : {
        "kilometers" : {
          "estimated_diameter_min" : 0.0088014652,
          "estimated_diameter_max" : 0.0196806745
        },
        "meters" : {
          "estimated_diameter_min" : 8.801465209,
          "estimated_diameter_max" : 19.6806745089
        },
        "miles" : {
          "estimated_diameter_min" : 0.0054689752,
          "estimated_diameter_max" : 0.0122290004
        },
        "feet" : {
          "estimated_diameter_min" : 28.8761991163,
          "estimated_diameter_max" : 64.5691441559
        }
      },
      "is_potentially_hazardous_asteroid" : false,
      "close_approach_data" : [ {
        "close_approach_date" : "1995-01-15",
        "epoch_date_close_approach" : 790156800000,
        "relative_velocity" : {
          "kilometers_per_second" : "11.1738744976",
          "kilometers_per_hour" : "40225.948191338",
          "miles_per_hour" : "24994.8398636678"
        },
        "miss_distance" : {
          "astronomical" : "0.2853223297",
          "lunar" : "110.9903869629",
          "kilometers" : "42683616",
          "miles" : "26522368"
        },
        "orbiting_body" : "Earth"
      } ],
      "orbital_data" : {
        "orbit_id" : "7",
        "orbit_determination_date" : "2017-04-06 09:15:49",
        "orbit_uncertainty" : "6",
        "minimum_orbit_intersection" : ".0055118",
        "jupiter_tisserand_invariant" : "5.093",
        "epoch_osculation" : "2458000.5",
        "eccentricity" : ".2165783078378784",
        "semi_major_axis" : "1.255902889613577",
        "inclination" : "7.905894348125122",
        "ascending_node_longitude" : "57.17326613388248",
        "orbital_period" : "514.0821403654488",
        "perihelion_distance" : ".9839015669723666",
        "perihelion_argument" : "18.70770087172089",
        "aphelion_distance" : "1.527904212254787",
        "perihelion_time" : "2457902.337433852940",
        "mean_anomaly" : "68.74100661777578",
        "mean_motion" : ".7002771964497434",
        "equinox" : "J2000"
      }
    }, {
      "links" : {
        "self" : "https://api.nasa.gov/neo/rest/v1/neo/3514799?api_key=t0TVs3DtDT2H8Oy2Zy8m2eVrNsAVKAexjcZXUckd"
      },
      "neo_reference_id" : "3514799",
      "name" : "(2010 FH81)",
      "nasa_jpl_url" : "http://ssd.jpl.nasa.gov/sbdb.cgi?sstr=3514799",
      "absolute_magnitude_h" : 21.6,
      "estimated_diameter" : {
        "kilometers" : {
          "estimated_diameter_min" : 0.1272198785,
          "estimated_diameter_max" : 0.2844722965
        },
        "meters" : {
          "estimated_diameter_min" : 127.2198785394,
          "estimated_diameter_max" : 284.4722965033
        },
        "miles" : {
          "estimated_diameter_min" : 0.0790507431,
          "estimated_diameter_max" : 0.1767628354
        },
        "feet" : {
          "estimated_diameter_min" : 417.3880663071,
          "estimated_diameter_max" : 933.3080892598
        }
      },
      "is_potentially_hazardous_asteroid" : true,
      "close_approach_data" : [ {
        "close_approach_date" : "1995-01-15",
        "epoch_date_close_approach" : 790156800000,
        "relative_velocity" : {
          "kilometers_per_second" : "9.8408310539",
          "kilometers_per_hour" : "35426.9917941048",
          "miles_per_hour" : "22012.9549845092"
        },
        "miss_distance" : {
          "astronomical" : "0.4078321707",
          "lunar" : "158.6467132568",
          "kilometers" : "61010824",
          "miles" : "37910368"
        },
        "orbiting_body" : "Earth"
      } ],
      "orbital_data" : {
        "orbit_id" : "25",
        "orbit_determination_date" : "2017-04-06 08:57:58",
        "orbit_uncertainty" : "1",
        "minimum_orbit_intersection" : ".034798",
        "jupiter_tisserand_invariant" : "5.154",
        "epoch_osculation" : "2458000.5",
        "eccentricity" : ".2104479432284866",
        "semi_major_axis" : "1.225614736618327",
        "inclination" : "16.79338165999116",
        "ascending_node_longitude" : "84.62930679460825",
        "orbital_period" : "495.597820944911",
        "perihelion_distance" : ".9676866361064762",
        "perihelion_argument" : "158.2635960713293",
        "aphelion_distance" : "1.483542837130177",
        "perihelion_time" : "2457814.455148689195",
        "mean_anomaly" : "135.1421326756292",
        "mean_motion" : ".7263954456329549",
        "equinox" : "J2000"
      }
    }, {
      "links" : {
        "self" : "https://api.nasa.gov/neo/rest/v1/neo/3671135?api_key=t0TVs3DtDT2H8Oy2Zy8m2eVrNsAVKAexjcZXUckd"
      },
      "neo_reference_id" : "3671135",
      "name" : "(2014 JG78)",
      "nasa_jpl_url" : "http://ssd.jpl.nasa.gov/sbdb.cgi?sstr=3671135",
      "absolute_magnitude_h" : 19.6,
      "estimated_diameter" : {
        "kilometers" : {
          "estimated_diameter_min" : 0.3195618867,
          "estimated_diameter_max" : 0.7145621017
        },
        "meters" : {
          "estimated_diameter_min" : 319.5618867213,
          "estimated_diameter_max" : 714.5621017269
        },
        "miles" : {
          "estimated_diameter_min" : 0.1985664891,
          "estimated_diameter_max" : 0.4440081677
        },
        "feet" : {
          "estimated_diameter_min" : 1048.4314204307,
          "estimated_diameter_max" : 2344.3639258298
        }
      },
      "is_potentially_hazardous_asteroid" : false,
      "close_approach_data" : [ {
        "close_approach_date" : "1995-01-15",
        "epoch_date_close_approach" : 790156800000,
        "relative_velocity" : {
          "kilometers_per_second" : "10.8088439585",
          "kilometers_per_hour" : "38911.83825064",
          "miles_per_hour" : "24178.3030507935"
        },
        "miss_distance" : {
          "astronomical" : "0.3927847844",
          "lunar" : "152.7932739258",
          "kilometers" : "58759768",
          "miles" : "36511628"
        },
        "orbiting_body" : "Earth"
      } ],
      "orbital_data" : {
        "orbit_id" : "40",
        "orbit_determination_date" : "2017-06-04 06:16:52",
        "orbit_uncertainty" : "1",
        "minimum_orbit_intersection" : ".272213",
        "jupiter_tisserand_invariant" : "4.724",
        "epoch_osculation" : "2458000.5",
        "eccentricity" : ".5634410734978924",
        "semi_major_axis" : "1.323532179970776",
        "inclination" : "17.92775064011703",
        "ascending_node_longitude" : "178.9719507770034",
        "orbital_period" : "556.1605558442809",
        "perihelion_distance" : ".5777997876790363",
        "perihelion_argument" : "198.1459691510273",
        "aphelion_distance" : "2.069264572262516",
        "perihelion_time" : "2458009.402634514719",
        "mean_anomaly" : "354.2373683433312",
        "mean_motion" : ".6472950953048102",
        "equinox" : "J2000"
      }
    }, {
      "links" : {
        "self" : "https://api.nasa.gov/neo/rest/v1/neo/2495323?api_key=t0TVs3DtDT2H8Oy2Zy8m2eVrNsAVKAexjcZXUckd"
      },
      "neo_reference_id" : "2495323",
      "name" : "495323 (2014 JG78)",
      "nasa_jpl_url" : "http://ssd.jpl.nasa.gov/sbdb.cgi?sstr=2495323",
      "absolute_magnitude_h" : 19.6,
      "estimated_diameter" : {
        "kilometers" : {
          "estimated_diameter_min" : 0.3195618867,
          "estimated_diameter_max" : 0.7145621017
        },
        "meters" : {
          "estimated_diameter_min" : 319.5618867213,
          "estimated_diameter_max" : 714.5621017269
        },
        "miles" : {
          "estimated_diameter_min" : 0.1985664891,
          "estimated_diameter_max" : 0.4440081677
        },
        "feet" : {
          "estimated_diameter_min" : 1048.4314204307,
          "estimated_diameter_max" : 2344.3639258298
        }
      },
      "is_potentially_hazardous_asteroid" : false,
      "close_approach_data" : [ {
        "close_approach_date" : "1995-01-15",
        "epoch_date_close_approach" : 790156800000,
        "relative_velocity" : {
          "kilometers_per_second" : "10.8088415879",
          "kilometers_per_hour" : "38911.829716462",
          "miles_per_hour" : "24178.2977479872"
        },
        "miss_distance" : {
          "astronomical" : "0.392783196",
          "lunar" : "152.7926635742",
          "kilometers" : "58759532",
          "miles" : "36511480"
        },
        "orbiting_body" : "Earth"
      } ],
      "orbital_data" : {
        "orbit_id" : "43",
        "orbit_determination_date" : "2017-06-28 06:19:25",
        "orbit_uncertainty" : "1",
        "minimum_orbit_intersection" : ".272213",
        "jupiter_tisserand_invariant" : "4.724",
        "epoch_osculation" : "2458000.5",
        "eccentricity" : ".5634411100746358",
        "semi_major_axis" : "1.323532161963902",
        "inclination" : "17.92774837902645",
        "ascending_node_longitude" : "178.9719525667907",
        "orbital_period" : "556.1605444942963",
        "perihelion_distance" : ".5777997314074783",
        "perihelion_argument" : "198.1459598526758",
        "aphelion_distance" : "2.069264592520325",
        "perihelion_time" : "2458009.402591357977",
        "mean_anomaly" : "354.237396160877",
        "mean_motion" : ".6472951085146458",
        "equinox" : "J2000"
      }
    } ]
  }
}